OBJECT_NAME,OBJECT_ID,EPOCH,MEAN_MOTION,ECCENTRICITY,INCLINATION,RA_OF_ASC_NODE,ARG_OF_PERICENTER,MEAN_ANOMALY,EPHEMERIS_TYPE,CLASSIFICATION_TYPE,NORAD_CAT_ID,ELEMENT_SET_NO,REV_AT_EPOCH,BSTAR,MEAN_MOTION_DOT,MEAN_MOTION_DDOT
STARLINK-3157,2021-104F,2024-10-05T12:38:39.109056,15.08840143,.0001413,53.2186,34.2302,94.9920,265.1234,0,U,49413,999,16133,.15239E-3,.2138E-4,0
STARLINK-3146,2021-104G,2024-10-04T16:06:32.399712,15.08835973,.0001147,53.2163,48.0614,83.6437,276.4686,0,U,49414,999,15997,.54947E-4,.587E-5,0
STARLINK-3159,2021-104H,2024-10-05T12:31:58.574208,15.08838111,.0001567,53.2192,34.2403,80.9911,279.1258,0,U,49415,999,16132,.11609E-3,.156E-4,0
STARLINK-3133,2021-104J,2024-10-05T12:35:56.900832,15.08839148,.0001382,53.2177,44.2274,92.6643,267.4507,0,U,49416,999,16120,.25919E-4,.125E-5,0
STARLINK-3154,2021-104K,2024-10-05T11:38:56.394816,15.08831863,.000134,53.2178,34.0584,101.8204,258.2939,0,U,49417,999,16134,.19488E-3,.2814E-4,0
STARLINK-3111,2021-104L,2024-10-04T15:50:37.895712,15.08840780,.0001281,53.2180,48.1100,87.1622,272.9517,0,U,49418,999,15996,.44283E-4,.417E-5,0
STARLINK-3120,2021-104M,2024-10-04T17:10:07.003776,15.08843724,.0001559,53.2178,47.8611,89.7200,270.3971,0,U,49419,999,15997,.15883E-3,.2241E-4,0
STARLINK-3110,2021-104N,2024-10-04T15:45:20.568384,15.08838312,.0001293,53.2167,48.1247,95.1023,265.0117,0,U,49420,999,15996,.14335E-3,.1994E-4,0
STARLINK-3112,2021-104P,2024-10-05T08:26:51.623232,15.08842449,.0001305,53.2167,44.8114,90.9329,269.1813,0,U,49421,999,16116,.37262E-3,.5648E-4,0
STARLINK-3161,2021-104Q,2024-10-04T16:23:52.252224,15.08836583,.0001728,53.2191,48.3253,71.8307,288.2874,0,U,49422,999,16107,.60968E-4,.682E-5,0
STARLINK-3149,2021-104R,2024-10-04T18:50:50.432352,15.08838663,.0001332,53.2173,47.7394,89.9748,270.1397,0,U,49423,999,15998,.55774E-4,.6E-5,0
STARLINK-3135,2021-104S,2024-10-05T12:09:27.338688,15.08837140,.0001495,53.2174,44.3098,99.5867,260.5294,0,U,49424,999,16118,.11516E-3,.1545E-4,0
STARLINK-3139,2021-104T,2024-10-05T11:49:37.915680,15.08841869,.0001392,53.2175,44.3822,94.6673,265.4478,0,U,49425,999,16118,.14134E-3,.1962E-4,0
STARLINK-3114,2021-104U,2024-10-05T11:58:51.731040,15.08835384,.0001272,53.2179,44.3414,80.4978,279.6158,0,U,49426,999,16118,.14428E-3,.2009E-4,0
STARLINK-3131,2021-104V,2024-10-05T11:44:20.394816,15.08834544,.0001486,53.2180,44.4002,80.4105,279.7055,0,U,49427,999,16120,.38128E-4,.319E-5,0
STARLINK-3121,2021-104W,2024-10-05T04:54:54.511776,15.08848758,.0001412,53.2162,45.5792,86.3572,273.7582,0,U,49428,999,16113,.66342E-3,.10289E-3,0
STARLINK-3138,2021-104Y,2024-10-05T12:16:10.819776,15.08834337,.000153,53.2177,44.5678,98.0723,262.0443,0,U,49430,999,16118,.16491E-4,-.26E-6,0
STARLINK-3153,2021-104Z,2024-10-05T12:41:17.115648,15.08834118,.0001392,53.2184,44.3974,100.5855,259.5294,0,U,49431,999,16119,.30038E-3,.4495E-4,0
STARLINK-3158,2021-104AA,2024-10-05T13:58:08.338944,15.08839763,.000145,53.2182,33.9724,104.8332,255.2821,0,U,49432,999,16133,.21016E-3,.3058E-4,0
STARLINK-3079,2021-104AB,2024-10-05T13:58:05.493792,15.08840475,.0001342,53.2178,23.9731,87.6432,272.4714,0,U,49433,999,16148,.23562E-3,.3464E-4,0
STARLINK-3134,2021-104AC,2024-10-05T11:53:35.542464,15.08834267,.0001475,53.2165,44.5141,48.7430,311.3689,0,U,49434,999,16118,.13426E-3,.1849E-4,0
STARLINK-3117,2021-104AD,2024-10-05T14:04:45.653664,15.08841119,.0001223,53.2186,23.9551,96.7597,263.3535,0,U,49435,999,16148,.69213E-4,.814E-5,0
STARLINK-3049,2021-104AE,2024-10-05T14:03:22.922208,15.08863409,.0001299,53.2170,23.9552,99.0256,261.0883,0,U,49436,999,16146,.5728E-3,.8846E-4,0
STARLINK-3130,2021-104AF,2024-10-05T13:52:47.050176,15.08838812,.0001563,53.2180,23.9882,91.4141,268.7031,0,U,49437,999,16146,.19915E-4,.29E-6,0
STARLINK-3044,2021-104AG,2024-10-05T13:38:15.631008,15.08831785,.0001517,53.2181,23.9688,91.3223,268.7943,0,U,49438,999,16146,.56141E-4,.605E-5,0
STARLINK-3105,2021-104AJ,2024-10-05T13:42:11.782944,15.08833265,.0001346,53.2167,24.0225,84.4753,275.6392,0,U,49440,999,16146,.73145E-4,.876E-5,0
STARLINK-3128,2021-104AK,2024-10-05T13:15:41.565888,15.08839775,.0001284,53.2180,24.1060,97.4610,262.6528,0,U,49441,999,16147,.57912E-4,.634E-5,0
STARLINK-3098,2021-104AL,2024-10-05T13:36:53.720352,15.08847194,.0001492,53.2175,24.0378,100.3531,259.7629,0,U,49442,999,16147,.51895E-3,.7982E-4,0
STARLINK-3136,2021-104AM,2024-10-05T11:35:00.751776,15.08841822,.000139,53.2192,24.4231,95.4178,264.6973,0,U,49443,999,16145,.21384E-3,.3117E-4,0
STARLINK-3126,2021-104AN,2024-10-05T13:32:58.765056,15.08832350,.0001564,53.2169,24.0609,82.6807,277.4363,0,U,49444,999,16146,.90574E-4,.1153E-4,0
