STARLINK-3157           
1 49413U 21104F   24279.52684154  .00002138  00000+0  15239-3 0  9994
2 49413  53.2186  34.2302 0001413  94.9920 265.1234 15.08840143161335
STARLINK-3146           
1 49414U 21104G   24278.67120833  .00000587  00000+0  54947-4 0  9995
2 49414  53.2163  48.0614 0001147  83.6437 276.4686 15.08835973159970
STARLINK-3159           
1 49415U 21104H   24279.52220572  .00001560  00000+0  11609-3 0  9991
2 49415  53.2192  34.2403 0001567  80.9911 279.1258 15.08838111161323
STARLINK-3133           
1 49416U 21104J   24279.52496413  .00000125  00000+0  25919-4 0  9997
2 49416  53.2177  44.2274 0001382  92.6643 267.4507 15.08839148161206
STARLINK-3154           
1 49417U 21104K   24279.48537494  .00002814  00000+0  19488-3 0  9998
2 49417  53.2178  34.0584 0001340 101.8204 258.2939 15.08831863161347
STARLINK-3111           
1 49418U 21104L   24278.66016083  .00000417  00000+0  44283-4 0  9993
2 49418  53.2180  48.1100 0001281  87.1622 272.9517 15.08840780159963
STARLINK-3120           
1 49419U 21104M   24278.71535884  .00002241  00000+0  15883-3 0  9995
2 49419  53.2178  47.8611 0001559  89.7200 270.3971 15.08843724159970
STARLINK-3110           
1 49420U 21104N   24278.65648806  .00001994  00000+0  14335-3 0  9994
2 49420  53.2167  48.1247 0001293  95.1023 265.0117 15.08838312159967
STARLINK-3112           
1 49421U 21104P   24279.35198638  .00005648  00000+0  37262-3 0  9990
2 49421  53.2167  44.8114 0001305  90.9329 269.1813 15.08842449161169
STARLINK-3161           
1 49422U 21104Q   24278.68324366  .00000682  00000+0  60968-4 0  9998
2 49422  53.2191  48.3253 0001728  71.8307 288.2874 15.08836583161074
STARLINK-3149           
1 49423U 21104R   24278.78530593  .00000600  00000+0  55774-4 0  9990
2 49423  53.2173  47.7394 0001332  89.9748 270.1397 15.08838663159982
STARLINK-3135           
1 49424U 21104S   24279.50656642  .00001545  00000+0  11516-3 0  9990
2 49424  53.2174  44.3098 0001495  99.5867 260.5294 15.08837140161180
STARLINK-3139           
1 49425U 21104T   24279.49279995  .00001962  00000+0  14134-3 0  9993
2 49425  53.2175  44.3822 0001392  94.6673 265.4478 15.08841869161185
STARLINK-3114           
1 49426U 21104U   24279.49920985  .00002009  00000+0  14428-3 0  9995
2 49426  53.2179  44.3414 0001272  80.4978 279.6158 15.08835384161182
STARLINK-3131           
1 49427U 21104V   24279.48912494  .00000319  00000+0  38128-4 0  9997
2 49427  53.2180  44.4002 0001486  80.4105 279.7055 15.08834544161205
STARLINK-3121           
1 49428U 21104W   24279.20479759  .00010289  00000+0  66342-3 0  9995
2 49428  53.2162  45.5792 0001412  86.3572 273.7582 15.08848758161139
STARLINK-3138           
1 49430U 21104Y   24279.51123634 -.00000026  00000+0  16491-4 0  9990
2 49430  53.2177  44.5678 0001530  98.0723 262.0443 15.08834337161189
STARLINK-3153           
1 49431U 21104Z   24279.52867032  .00004495  00000+0  30038-3 0  9994
2 49431  53.2184  44.3974 0001392 100.5855 259.5294 15.08834118161199
STARLINK-3158           
1 49432U 21104AA  24279.58204096  .00003058  00000+0  21016-3 0  9996
2 49432  53.2182  33.9724 0001450 104.8332 255.2821 15.08839763161333
STARLINK-3079           
1 49433U 21104AB  24279.58200803  .00003464  00000+0  23562-3 0  9998
2 49433  53.2178  23.9731 0001342  87.6432 272.4714 15.08840475161485
STARLINK-3134           
1 49434U 21104AC  24279.49555026  .00001849  00000+0  13426-3 0  9992
2 49434  53.2165  44.5141 0001475  48.7430 311.3689 15.08834267161182
STARLINK-3117           
1 49435U 21104AD  24279.58663951  .00000814  00000+0  69213-4 0  9997
2 49435  53.2186  23.9551 0001223  96.7597 263.3535 15.08841119161483
STARLINK-3049           
1 49436U 21104AE  24279.58568197  .00008846  00000+0  57280-3 0  9997
2 49436  53.2170  23.9552 0001299  99.0256 261.0883 15.08863409161464
STARLINK-3130           
1 49437U 21104AF  24279.57832234  .00000029  00000+0  19915-4 0  9992
2 49437  53.2180  23.9882 0001563  91.4141 268.7031 15.08838812161464
STARLINK-3044           
1 49438U 21104AG  24279.56823647  .00000605  00000+0  56141-4 0  9992
2 49438  53.2181  23.9688 0001517  91.3223 268.7943 15.08831785161463
STARLINK-3105           
1 49440U 21104AJ  24279.57096971  .00000876  00000+0  73145-4 0  9991
2 49440  53.2167  24.0225 0001346  84.4753 275.6392 15.08833265161460
STARLINK-3128           
1 49441U 21104AK  24279.55256442  .00000634  00000+0  57912-4 0  9997
2 49441  53.2180  24.1060 0001284  97.4610 262.6528 15.08839775161471
STARLINK-3098           
1 49442U 21104AL  24279.56728843  .00007982  00000+0  51895-3 0  9994
2 49442  53.2175  24.0378 0001492 100.3531 259.7629 15.08847194161477
STARLINK-3136           
1 49443U 21104AM  24279.48264759  .00003117  00000+0  21384-3 0  9993
2 49443  53.2192  24.4231 0001390  95.4178 264.6973 15.08841822161454
STARLINK-3126           
1 49444U 21104AN  24279.56456904  .00001153  00000+0  90574-4 0  9994
2 49444  53.2169  24.0609 0001564  82.6807 277.4363 15.08832350161466
